{
  "type": "FeatureCollection",
  "crs": {
    "type": "name",
    "properties": {
      "name": "urn:ogc:def:crs:OGC:1.3:CRS84"
    }
  },
  "features": [
    {
      "type": "Feature",
      "properties": {
        "id_site": 16,
        "global_id": "552d856a-64cd-4e84-8553-c8eb64f776ca",
        "observation": "Keine Fahrradwege",
        "topic_other_text": {},
        "justice_perception": "very unjust",
        "justice_for_whom": "alle ausser autofahrende",
        "varies_by_time": "clearl",
        "time_variation_desc": "mehr los in stosszeiten",
        "change_suggestion": "Fahrradstr ohne Beeinträchtigung von fussgängern",
        "parent_global_id": "0cadfc1c-0403-4e27-8889-ebddaaa77a53",
        "created_site": "5/22/2026 11:01:42 AM",
        "creator_site": "selina.elisabeth.wyrwal@student.hu_berlin.de_HUB",
        "edited_site": "5/22/2026 11:01:42 AM",
        "editor_site": "selina.elisabeth.wyrwal@student.hu_berlin.de_HUB",
        "x": 13.457053024,
        "y": 52.491114283,
        "id_person": 15,
        "transport_mode": "bicycle",
        "transport_mode_other": {},
        "area_connection": "living",
        "area_connection_other": {},
        "age_group": "35-44",
        "gender": "male",
        "education": "university_degree",
        "education_other": {},
        "additional_comments": "TI1",
        "created_person": "5/22/2026 11:01:41 AM",
        "creator_person": "selina.elisabeth.wyrwal@student.hu_berlin.de_HUB",
        "edited_person": "5/22/2026 11:01:41 AM",
        "editor_person": "selina.elisabeth.wyrwal@student.hu_berlin.de_HUB",
        "observation_clean": "Keine Fahrradwege.",
        "suggestion_clean": "Eine Fahrradstraße, die Fußgänger nicht beeinträchtigt.",
        "topic_noise": 0,
        "topic_air_quality": 0,
        "topic_safety": 0,
        "topic_barriers": 0,
        "topic_accessibility": 0,
        "topic_pt_connection": 0,
        "topic_space_distribution": 1,
        "topic_cond_ped": 0,
        "topic_cond_cycl": 1,
        "topic_atmosphere": 0,
        "topic_other": 0
      },
      "geometry": {
        "type": "Point",
        "coordinates": [
          13.457053024,
          52.491114283
        ]
      }
    },
    {
      "type": "Feature",
      "properties": {
        "id_site": 26,
        "global_id": "cf451e81-9f99-4453-8f92-1edb46bf60f2",
        "observation": "kein weg, übles kopfsteinpflaster, gehweg katastrophe, autofahrer überholen dicht",
        "topic_other_text": {},
        "justice_perception": "very unjust",
        "justice_for_whom": "Radfahrer und Fußgänger",
        "varies_by_time": "clearl",
        "time_variation_desc": "Sonntags kaum autoverkehr dann ist es besser",
        "change_suggestion": "Fahrradweg hinzufügen, kanalseitige parkplätze streichen",
        "parent_global_id": "df7674bd-054f-48bd-93f4-06a25aa3f72e",
        "created_site": "5/27/2026 4:16:04 PM",
        "creator_site": "jannes.goschler@student.hu_berlin.de_HUB",
        "edited_site": "5/27/2026 4:16:04 PM",
        "editor_site": "jannes.goschler@student.hu_berlin.de_HUB",
        "x": 13.4436463054095,
        "y": 52.4856202844119,
        "id_person": 24,
        "transport_mode": "bicycle",
        "transport_mode_other": {},
        "area_connection": "living",
        "area_connection_other": {},
        "age_group": "35-44",
        "gender": "female",
        "education": "university_degree",
        "education_other": {},
        "additional_comments": "Die A100 ist eine katastrophe, der bus nicht mehr pünktlich",
        "created_person": "5/27/2026 4:16:03 PM",
        "creator_person": "jannes.goschler@student.hu_berlin.de_HUB",
        "edited_person": "5/27/2026 4:16:03 PM",
        "editor_person": "jannes.goschler@student.hu_berlin.de_HUB",
        "observation_clean": "Kein Radweg, übles Kopfsteinpflaster, katastrophaler Gehweg. Autofahrer überholen mit wenig Abstand.",
        "suggestion_clean": "Einen Fahrradweg einrichten und die kanalseitigen Parkplätze streichen.",
        "topic_noise": 0,
        "topic_air_quality": 0,
        "topic_safety": 0,
        "topic_barriers": 1,
        "topic_accessibility": 0,
        "topic_pt_connection": 0,
        "topic_space_distribution": 0,
        "topic_cond_ped": 0,
        "topic_cond_cycl": 1,
        "topic_atmosphere": 0,
        "topic_other": 0
      },
      "geometry": {
        "type": "Point",
        "coordinates": [
          13.4436463054095,
          52.4856202844119
        ]
      }
    },
    {
      "type": "Feature",
      "properties": {
        "id_site": 34,
        "global_id": "9c7d012f-320d-4d6d-a29c-818b7efe1f51",
        "observation": "Nein",
        "topic_other_text": "Baustelle",
        "justice_perception": "somewhat just",
        "justice_for_whom": "Not just for visitors do to accessibility to Adl",
        "varies_by_time": "cant_say",
        "time_variation_desc": {},
        "change_suggestion": "More sitting Space",
        "parent_global_id": "7dc046c9-6876-488f-8dde-6354967a6e03",
        "created_site": "5/28/2026 10:13:47 AM",
        "creator_site": "WiSe2324_ags_alekseeva",
        "edited_site": "5/28/2026 10:13:47 AM",
        "editor_site": "WiSe2324_ags_alekseeva",
        "x": 13.5423425999644,
        "y": 52.4366745257053,
        "id_person": 32,
        "transport_mode": "public transport",
        "transport_mode_other": {},
        "area_connection": "tourist,travelling_through",
        "area_connection_other": {},
        "age_group": "25-34",
        "gender": "male",
        "education": "school_certificate",
        "education_other": {},
        "additional_comments": "None",
        "created_person": "5/28/2026 10:13:47 AM",
        "creator_person": "WiSe2324_ags_alekseeva",
        "edited_person": "5/28/2026 10:13:47 AM",
        "editor_person": "WiSe2324_ags_alekseeva",
        "observation_clean": "Nichts aufgefallen.",
        "suggestion_clean": "Mehr Sitzmöglichkeiten.",
        "topic_noise": 0,
        "topic_air_quality": 0,
        "topic_safety": 1,
        "topic_barriers": 0,
        "topic_accessibility": 0,
        "topic_pt_connection": 0,
        "topic_space_distribution": 0,
        "topic_cond_ped": 0,
        "topic_cond_cycl": 0,
        "topic_atmosphere": 1,
        "topic_other": 1
      },
      "geometry": {
        "type": "Point",
        "coordinates": [
          13.5423425999644,
          52.4366745257053
        ]
      }
    },
    {
      "type": "Feature",
      "properties": {
        "id_site": 46,
        "global_id": "d935efcc-a075-4678-8a57-228f05d92b8f",
        "observation": "Too loud, too many people, not very safe neighborhood",
        "topic_other_text": {},
        "justice_perception": "very unjust",
        "justice_for_whom": "For themselves [natives of Poland]",
        "varies_by_time": "clearl",
        "time_variation_desc": "Gets dangerous at night",
        "change_suggestion": "More lightning on the streets, more parking spaces",
        "parent_global_id": "8b0771a6-7c4e-477f-ad46-d26a405a9352",
        "created_site": "5/28/2026 4:09:34 PM",
        "creator_site": "WiSe2324_ags_alekseeva",
        "edited_site": "5/28/2026 4:09:34 PM",
        "editor_site": "WiSe2324_ags_alekseeva",
        "x": 13.5504221514535,
        "y": 52.4378594211879,
        "id_person": 41,
        "transport_mode": "car",
        "transport_mode_other": {},
        "area_connection": "living,working",
        "area_connection_other": {},
        "age_group": "35-44",
        "gender": "male",
        "education": "school_certificate",
        "education_other": {},
        "additional_comments": {},
        "created_person": "5/28/2026 4:09:34 PM",
        "creator_person": "WiSe2324_ags_alekseeva",
        "edited_person": "5/28/2026 4:09:34 PM",
        "editor_person": "WiSe2324_ags_alekseeva",
        "observation_clean": "Zu laut, zu viele Menschen, unsicheres Viertel.",
        "suggestion_clean": "Bessere Straßenbeleuchtung und mehr Parkplätze.",
        "topic_noise": 1,
        "topic_air_quality": 0,
        "topic_safety": 1,
        "topic_barriers": 0,
        "topic_accessibility": 0,
        "topic_pt_connection": 0,
        "topic_space_distribution": 0,
        "topic_cond_ped": 0,
        "topic_cond_cycl": 0,
        "topic_atmosphere": 0,
        "topic_other": 0
      },
      "geometry": {
        "type": "Point",
        "coordinates": [
          13.5504221514535,
          52.4378594211879
        ]
      }
    },
    {
      "type": "Feature",
      "properties": {
        "id_site": 53,
        "global_id": "f6bf168e-b32a-426a-bf1c-59c9578aa75a",
        "observation": "- Arbeitsweg aus Kreuzberg mit dem Fahrrad verlegt über Wangelstraße statt Wiener Straße.\n- A100 Verkehrszeiten sind ungerecht verteilt\n- Kieze verstöndigen sich nicht untereinander (mit Fahrrafinfrastruktur), ist etwas besser geworden",
        "topic_other_text": {},
        "justice_perception": "very just",
        "justice_for_whom": "- für alle Menschen gleich gerecht/ungerecht; - bis zur nächsten Einmündung (Bouchéestr. können auch Autofahrer); - zu kleines Dtück Fahrradstraße, hat sich nicht viel verändert",
        "varies_by_time": "no",
        "time_variation_desc": {},
        "change_suggestion": "Fahrradstraße weiter fortführen bis Neukölln, 2. Fahrradstraße erst in Treptow-Köpenick",
        "parent_global_id": "70781272-b35c-4ffa-9805-03163f24534b",
        "created_site": "6/4/2026 3:32:30 PM",
        "creator_site": "paula.zemann@student.hu_berlin.de_HUB",
        "edited_site": "6/4/2026 3:32:30 PM",
        "editor_site": "paula.zemann@student.hu_berlin.de_HUB",
        "x": 13.4455846104132,
        "y": 52.497078705129,
        "id_person": 47,
        "transport_mode": "bicycle",
        "transport_mode_other": {},
        "area_connection": "working",
        "area_connection_other": {},
        "age_group": "55-64",
        "gender": "male",
        "education": "other",
        "education_other": "Meister",
        "additional_comments": "Nr. 1\n- benutzt Fahrradstraße Bouchéestr. immer zum Testen von Fahrrädern aus Werkstatt\n- bei Location ist ganze Straße gemeint -> hat weg von Wiener Str. auf Wangelstr. verlegt wegen besserer Sicherheit",
        "created_person": "6/4/2026 3:32:30 PM",
        "creator_person": "paula.zemann@student.hu_berlin.de_HUB",
        "edited_person": "6/4/2026 3:32:30 PM",
        "editor_person": "paula.zemann@student.hu_berlin.de_HUB",
        "observation_clean": "Arbeitsweg mit dem Fahrrad aus Kreuzberg über die Wangelstraße statt die Wiener Straße verlegt. Die Verkehrszeiten der A100 sind ungerecht verteilt. Die Kieze stimmen sich bei der Fahrradinfrastruktur nicht untereinander ab – es wird aber etwas besser.",
        "suggestion_clean": "Die Fahrradstraße bis Neukölln weiterführen. Eine zweite Fahrradstraße beginnt erst in Treptow-Köpenick.",
        "topic_noise": 1,
        "topic_air_quality": 0,
        "topic_safety": 0,
        "topic_barriers": 0,
        "topic_accessibility": 1,
        "topic_pt_connection": 0,
        "topic_space_distribution": 1,
        "topic_cond_ped": 0,
        "topic_cond_cycl": 1,
        "topic_atmosphere": 0,
        "topic_other": 0
      },
      "geometry": {
        "type": "Point",
        "coordinates": [
          13.4455846104132,
          52.497078705129
        ]
      }
    },
    {
      "type": "Feature",
      "properties": {
        "id_site": 1,
        "global_id": "a776461f-bca0-4886-851b-4e2b0be76846",
        "observation": "Sehr grün und ruhig nach Verkehrsberuhigung, insb. für Fußgänger viel besser",
        "topic_other_text": null,
        "justice_perception": "somewhat just",
        "justice_for_whom": null,
        "varies_by_time": null,
        "time_variation_desc": null,
        "change_suggestion": "Kopfpflaster abschleifen, parkende Autos in zweite Reihe",
        "parent_global_id": "596c923b-9904-482d-8535-da49b08ff574",
        "created_site": "8/25/2026 11:52:08 AM",
        "creator_site": null,
        "edited_site": "8/25/2026 11:52:08 AM",
        "editor_site": null,
        "x": 13.418496215,
        "y": 52.493985604,
        "id_person": 1,
        "transport_mode": "bicycle",
        "transport_mode_other": null,
        "area_connection": null,
        "area_connection_other": null,
        "age_group": "19-29",
        "gender": "female",
        "education": "university_degree",
        "education_other": null,
        "additional_comments": null,
        "created_person": "8/25/2026 11:52:08 AM",
        "creator_person": null,
        "edited_person": "8/25/2026 11:52:08 AM",
        "editor_person": null,
        "observation_clean": "Sehr grün und ruhig nach Verkehrsberuhigung, insb. für Fußgänger viel besser",
        "suggestion_clean": "Kopfpflaster abschleifen, parkende Autos in zweite Reihe",
        "topic_noise": 0,
        "topic_air_quality": 0,
        "topic_safety": 1,
        "topic_barriers": 0,
        "topic_accessibility": 0,
        "topic_pt_connection": 0,
        "topic_space_distribution": 0,
        "topic_cond_ped": 1,
        "topic_cond_cycl": 0,
        "topic_atmosphere": 1,
        "topic_other": 0
      },
      "geometry": {
        "type": "Point",
        "coordinates": [13.418496215, 52.493985604]
      }
    },
    {
      "type": "Feature",
      "properties": {
        "id_site": 2,
        "global_id": "e929acc9-6da9-4b87-8b59-a7254938d0d3",
        "observation": "Seit der Einführung des Kiezblocks im Reuterkiez hat der Autoverkehr zwar abgenommen und es ist für Fußgänger und Fahrradfahrer viel \"bequemer\"/gerechter geworden. Allerdings haben die Anwohner nun dasselbe Lärmproblem wie an der Admiralbrücke, da dort täglich Konzerte stattfinden. Zudem hinterlassen die Brücken-Nutzer:innen sehr viel Müll.",
        "topic_other_text": null,
        "justice_perception": "very just",
        "justice_for_whom": null,
        "varies_by_time": null,
        "time_variation_desc": null,
        "change_suggestion": "Bei der Einführung von verkehrsberuhigenden Maßnahmen, wie beispielsweise Kiezblocks, sind Konzepte zu Lärm und Müll sowie die Beteiligung der Anwohnenden zu berücksichtigen.",
        "parent_global_id": "fcd63852-eee9-48f9-86f1-c0c64b48fddf",
        "created_site": "8/25/2026 3:50:51 PM",
        "creator_site": null,
        "edited_site": "8/25/2026 3:50:51 PM",
        "editor_site": null,
        "x": 13.428412133,
        "y": 52.493636938,
        "id_person": 2,
        "transport_mode": "bicycle",
        "transport_mode_other": null,
        "area_connection": null,
        "area_connection_other": null,
        "age_group": "19-29",
        "gender": "female",
        "education": "university_degree",
        "education_other": null,
        "additional_comments": null,
        "created_person": "8/25/2026 3:50:51 PM",
        "creator_person": null,
        "edited_person": "8/25/2026 3:50:51 PM",
        "editor_person": null,
        "observation_clean": "Seit der Einführung des Kiezblocks im Reuterkiez hat der Autoverkehr zwar abgenommen und es ist für Fußgänger und Fahrradfahrer viel \"bequemer\"/gerechter geworden. Allerdings haben die Anwohner nun dasselbe Lärmproblem wie an der Admiralbrücke, da dort täglich Konzerte stattfinden. Zudem hinterlassen die Brücken-Nutzer:innen sehr viel Müll.",
        "suggestion_clean": "Bei der Einführung von verkehrsberuhigenden Maßnahmen, wie beispielsweise Kiezblocks, sind Konzepte zu Lärm und Müll sowie die Beteiligung der Anwohnenden zu berücksichtigen.",
        "topic_noise": 1,
        "topic_air_quality": 0,
        "topic_safety": 1,
        "topic_barriers": 0,
        "topic_accessibility": 0,
        "topic_pt_connection": 0,
        "topic_space_distribution": 0,
        "topic_cond_ped": 1,
        "topic_cond_cycl": 1,
        "topic_atmosphere": 0,
        "topic_other": 0
      },
      "geometry": {
        "type": "Point",
        "coordinates": [13.428412133, 52.493636938]
      }
    },
    {
      "type": "Feature",
      "properties": {
        "id_site": 3,
        "global_id": "db4c4a05-c2ec-4c8b-89d1-e9b1f1e0370d",
        "observation": "Während es in Mitte (Süden) noch einen Fahrradweg auf dem Gehweg gibt, ist ab hier richtung Norden gar keit Radstreifen oder Radweg mehr da. Das ist auf einer solch wichtigen Verbindungsachse nicht richtig und für Radfahrende ungerecht.",
        "topic_other_text": null,
        "justice_perception": "very unjust",
        "justice_for_whom": null,
        "varies_by_time": null,
        "time_variation_desc": null,
        "change_suggestion": "Einen Radstreifen anlegen bis Gesundbrunnen und weiter.",
        "parent_global_id": "d09d5af1-f6ce-4f26-81a4-6cb859751681",
        "created_site": "8/28/2026 11:00:30 AM",
        "creator_site": null,
        "edited_site": "8/28/2026 11:00:30 AM",
        "editor_site": null,
        "x": 13.395466056,
        "y": 52.539072737,
        "id_person": 3,
        "transport_mode": "public_transport",
        "transport_mode_other": null,
        "area_connection": null,
        "area_connection_other": null,
        "age_group": "30-49",
        "gender": "male",
        "education": "university_degree",
        "education_other": null,
        "additional_comments": null,
        "created_person": "8/28/2026 11:00:30 AM",
        "creator_person": null,
        "edited_person": "8/28/2026 11:00:30 AM",
        "editor_person": null,
        "observation_clean": "Während es in Mitte (Süden) noch einen Fahrradweg auf dem Gehweg gibt, ist ab hier richtung Norden gar keit Radstreifen oder Radweg mehr da. Das ist auf einer solch wichtigen Verbindungsachse nicht richtig und für Radfahrende ungerecht.",
        "suggestion_clean": "Einen Radstreifen anlegen bis Gesundbrunnen und weiter.",
        "topic_noise": 0,
        "topic_air_quality": 0,
        "topic_safety": 1,
        "topic_barriers": 0,
        "topic_accessibility": 0,
        "topic_pt_connection": 0,
        "topic_space_distribution": 1,
        "topic_cond_ped": 0,
        "topic_cond_cycl": 1,
        "topic_atmosphere": 0,
        "topic_other": 0
      },
      "geometry": {
        "type": "Point",
        "coordinates": [13.395466056, 52.539072737]
      }
    },
    {
      "type": "Feature",
      "properties": {
        "id_site": 4,
        "global_id": "f2ba9864-109c-4fcd-881c-17d4a46d0379",
        "observation": "Ich fahre dort jeden Tag mit dem Fahrrad durch und ich habe Angst.",
        "topic_other_text": null,
        "justice_perception": "somewhat unjust",
        "justice_for_whom": null,
        "varies_by_time": null,
        "time_variation_desc": null,
        "change_suggestion": "Die Straße ist sehr schlechten Zustand und ziemlich schmal. Autos sollten hier langsamer fahren.",
        "parent_global_id": "adea1af5-b07e-4a96-8413-5db304866ee1",
        "created_site": "8/28/2026 4:00:11 PM",
        "creator_site": null,
        "edited_site": "8/28/2026 4:00:11 PM",
        "editor_site": null,
        "x": 13.606441325,
        "y": 52.527227394,
        "id_person": 4,
        "transport_mode": "public_transport",
        "transport_mode_other": null,
        "area_connection": null,
        "area_connection_other": null,
        "age_group": "30-49",
        "gender": "no_answer",
        "education": "university_degree",
        "education_other": null,
        "additional_comments": null,
        "created_person": "8/28/2026 4:00:11 PM",
        "creator_person": null,
        "edited_person": "8/28/2026 4:00:11 PM",
        "editor_person": null,
        "observation_clean": "Ich fahre dort jeden Tag mit dem Fahrrad durch und ich habe Angst.",
        "suggestion_clean": "Die Straße ist sehr schlechten Zustand und ziemlich schmal. Autos sollten hier langsamer fahren.",
        "topic_noise": 0,
        "topic_air_quality": 0,
        "topic_safety": 1,
        "topic_barriers": 0,
        "topic_accessibility": 0,
        "topic_pt_connection": 0,
        "topic_space_distribution": 0,
        "topic_cond_ped": 0,
        "topic_cond_cycl": 1,
        "topic_atmosphere": 0,
        "topic_other": 0
      },
      "geometry": {
        "type": "Point",
        "coordinates": [13.606441325, 52.527227394]
      }
    },
    {
      "type": "Feature",
      "properties": {
        "id_site": 6,
        "global_id": "32cc8349-a96e-4483-8049-f4d7f3e6c421",
        "observation": "Menschen die mit ihrem Auto im Kreuzungsbereich (5m) stehen und so die Kreuzung gefährlich für Menschen zu Fuss mit Fahrrädern, Kindern oder im Rollstuhl machen. Das Herumlaufen gleicht einem Hindernissrennen. Aber es wird einfach losgefahren obwohl die Fahrzeuge Wartepflichtig sind. Zusätzlich wird der Bereich nordwestlicher Gehweg unzulässig beparkt es ist aber ganz klar ein Gehweg und kein Parkplatz es gibt im Umfeld 80- 100 Parkplätze am S-Bahnhof Rahnsdorf aber mal 20 meter gehen !? Ohje viel zu weit. Mittlerweile werden jeden 2-3 Tag die Poller oder das Straßenschild umgefahren es ist nur eine Frage der Zeit bis Menschen verletzt werden. Außerdem reicht die Fahrradabstellanlage schon seit Jahren nicht mehr aus. Für 5-10 PKW Parkplätze könnten 50-100 Fahrräder abgestellt werden, wenn PKW Stellplätze umgenutzt werden würden.",
        "topic_other_text": null,
        "justice_perception": "somewhat unjust",
        "justice_for_whom": null,
        "varies_by_time": null,
        "time_variation_desc": null,
        "change_suggestion": "Die erreichbarkeit mit dem Auto verknappen und mehr Abstellkapazität der Fahrräder für Radfahrende.",
        "parent_global_id": "7d380d2a-18b9-4756-82d0-0dc046357779",
        "created_site": "8/30/2026 11:29:55 PM",
        "creator_site": null,
        "edited_site": "8/30/2026 11:29:55 PM",
        "editor_site": null,
        "x": 13.691588584,
        "y": 52.45164447,
        "id_person": 6,
        "transport_mode": "bicycle",
        "transport_mode_other": null,
        "area_connection": null,
        "area_connection_other": null,
        "age_group": "30-49",
        "gender": "male",
        "education": "vocational_training",
        "education_other": null,
        "additional_comments": null,
        "created_person": "8/30/2026 11:29:55 PM",
        "creator_person": null,
        "edited_person": "8/30/2026 11:29:55 PM",
        "editor_person": null,
        "observation_clean": "Menschen die mit ihrem Auto im Kreuzungsbereich (5m) stehen und so die Kreuzung gefährlich für Menschen zu Fuss mit Fahrrädern, Kindern oder im Rollstuhl machen. Das Herumlaufen gleicht einem Hindernissrennen. Aber es wird einfach losgefahren obwohl die Fahrzeuge Wartepflichtig sind. Zusätzlich wird der Bereich nordwestlicher Gehweg unzulässig beparkt es ist aber ganz klar ein Gehweg und kein Parkplatz es gibt im Umfeld 80- 100 Parkplätze am S-Bahnhof Rahnsdorf aber mal 20 meter gehen !? Ohje viel zu weit. Mittlerweile werden jeden 2-3 Tag die Poller oder das Straßenschild umgefahren es ist nur eine Frage der Zeit bis Menschen verletzt werden. Außerdem reicht die Fahrradabstellanlage schon seit Jahren nicht mehr aus. Für 5-10 PKW Parkplätze könnten 50-100 Fahrräder abgestellt werden, wenn PKW Stellplätze umgenutzt werden würden.",
        "suggestion_clean": "Die erreichbarkeit mit dem Auto verknappen und mehr Abstellkapazität der Fahrräder für Radfahrende.",
        "topic_noise": 0,
        "topic_air_quality": 0,
        "topic_safety": 1,
        "topic_barriers": 0,
        "topic_accessibility": 0,
        "topic_pt_connection": 0,
        "topic_space_distribution": 1,
        "topic_cond_ped": 0,
        "topic_cond_cycl": 0,
        "topic_atmosphere": 0,
        "topic_other": 0
      },
      "geometry": {
        "type": "Point",
        "coordinates": [13.691588584, 52.45164447]
      }
    },
    {
      "type": "Feature",
      "properties": {
        "id_site": 7,
        "global_id": "2d9a1e24-bddc-4e05-8fdc-b56bc080e835",
        "observation": "Beide Brücken die unter dem Bahnhof Langlaufen sind Angst Orte- Dunkel, stinken nach Urin, Obdachlose.",
        "topic_other_text": null,
        "justice_perception": "weder noch",
        "justice_for_whom": null,
        "varies_by_time": null,
        "time_variation_desc": null,
        "change_suggestion": "Ein Beleuchtungskonzept. Und intensive Reinigung",
        "parent_global_id": "ea4174a5-2dcb-4ef7-8fcf-1dee8617a6c9",
        "created_site": "9/6/2026 9:30:46 AM",
        "creator_site": null,
        "edited_site": "9/6/2026 9:30:46 AM",
        "editor_site": null,
        "x": 13.3885748,
        "y": 52.5197104,
        "id_person": 7,
        "transport_mode": "bicycle",
        "transport_mode_other": null,
        "area_connection": null,
        "area_connection_other": null,
        "age_group": "30-49",
        "gender": "female",
        "education": "university_degree",
        "education_other": null,
        "additional_comments": null,
        "created_person": "9/6/2026 9:30:46 AM",
        "creator_person": null,
        "edited_person": "9/6/2026 9:30:46 AM",
        "editor_person": null,
        "observation_clean": "Beide Brücken die unter dem Bahnhof Langlaufen sind Angst Orte- Dunkel, stinken nach Urin, Obdachlose.",
        "suggestion_clean": "Ein Beleuchtungskonzept. Und intensive Reinigung",
        "topic_noise": 0,
        "topic_air_quality": 1,
        "topic_safety": 1,
        "topic_barriers": 0,
        "topic_accessibility": 0,
        "topic_pt_connection": 0,
        "topic_space_distribution": 0,
        "topic_cond_ped": 0,
        "topic_cond_cycl": 0,
        "topic_atmosphere": 0,
        "topic_other": 0
      },
      "geometry": {
        "type": "Point",
        "coordinates": [13.3885748, 52.5197104]
      }
    },
    {
      "type": "Feature",
      "properties": {
        "id_site": 8,
        "global_id": "042cb0b8-2672-4269-8477-b5902166a4cd",
        "observation": "Beide Wege unter den Brücke sind Angstträume dunkel Urin obdachlose",
        "topic_other_text": null,
        "justice_perception": "weder noch",
        "justice_for_whom": null,
        "varies_by_time": null,
        "time_variation_desc": null,
        "change_suggestion": "Beleuchtung Reinigung",
        "parent_global_id": "ea4174a5-2dcb-4ef7-8fcf-1dee8617a6c9",
        "created_site": "9/6/2026 9:30:46 AM",
        "creator_site": null,
        "edited_site": "9/6/2026 9:30:46 AM",
        "editor_site": null,
        "x": 13.388311615,
        "y": 52.520562903,
        "id_person": 7,
        "transport_mode": "bicycle",
        "transport_mode_other": null,
        "area_connection": null,
        "area_connection_other": null,
        "age_group": "30-49",
        "gender": "female",
        "education": "university_degree",
        "education_other": null,
        "additional_comments": null,
        "created_person": "9/6/2026 9:30:46 AM",
        "creator_person": null,
        "edited_person": "9/6/2026 9:30:46 AM",
        "editor_person": null,
        "observation_clean": "Beide Wege unter den Brücke sind Angstträume dunkel Urin obdachlose",
        "suggestion_clean": "Beleuchtung Reinigung",
        "topic_noise": 0,
        "topic_air_quality": 1,
        "topic_safety": 1,
        "topic_barriers": 0,
        "topic_accessibility": 0,
        "topic_pt_connection": 0,
        "topic_space_distribution": 0,
        "topic_cond_ped": 0,
        "topic_cond_cycl": 0,
        "topic_atmosphere": 0,
        "topic_other": 0
      },
      "geometry": {
        "type": "Point",
        "coordinates": [13.388311615, 52.520562903]
      }
    },
    {
      "type": "Feature",
      "properties": {
        "id_site": 9,
        "global_id": "5722dfed-27a6-4a72-893a-c725d8835dd8",
        "observation": "Viel zu viel Autoverkehr. Gefährlich für Kinder und Radfahrende. Habe Angst um unsere Gesundheit.",
        "topic_other_text": null,
        "justice_perception": "somewhat unjust",
        "justice_for_whom": null,
        "varies_by_time": null,
        "time_variation_desc": null,
        "change_suggestion": "Weniger Autos, stärkere Konsequenzen wenn Autofahrer über Rot fahren",
        "parent_global_id": "74d9312e-a63c-4896-8a0d-228ea832b6f1",
        "created_site": "9/6/2026 4:47:06 PM",
        "creator_site": null,
        "edited_site": "9/6/2026 4:47:06 PM",
        "editor_site": null,
        "x": 13.428970451,
        "y": 52.471791204,
        "id_person": 8,
        "transport_mode": "bicycle",
        "transport_mode_other": null,
        "area_connection": null,
        "area_connection_other": null,
        "age_group": "30-49",
        "gender": "female",
        "education": "vocational_training",
        "education_other": null,
        "additional_comments": null,
        "created_person": "9/6/2026 4:47:06 PM",
        "creator_person": null,
        "edited_person": "9/6/2026 4:47:06 PM",
        "editor_person": null,
        "observation_clean": "Viel zu viel Autoverkehr. Gefährlich für Kinder und Radfahrende. Habe Angst um unsere Gesundheit.",
        "suggestion_clean": "Weniger Autos, stärkere Konsequenzen wenn Autofahrer über Rot fahren",
        "topic_noise": 0,
        "topic_air_quality": 1,
        "topic_safety": 1,
        "topic_barriers": 0,
        "topic_accessibility": 0,
        "topic_pt_connection": 0,
        "topic_space_distribution": 1,
        "topic_cond_ped": 0,
        "topic_cond_cycl": 1,
        "topic_atmosphere": 0,
        "topic_other": 0
      },
      "geometry": {
        "type": "Point",
        "coordinates": [13.428970451, 52.471791204]
      }
    }
  ]
}
