{
"type": "FeatureCollection",
"name": "sites_mit_demographics_bereinigt_v2_sample",
"crs": { "type": "name", "properties": { "name": "urn:ogc:def:crs:OGC:1.3:CRS84" } },
"features": [
{ "type": "Feature", "properties": { "id_site": 16.0, "global_id": "552d856a-64cd-4e84-8553-c8eb64f776ca", "observation": "Keine Fahrradwege", "topic_other_text": null, "justice_perception": "very unjust", "justice_for_whom": "alle ausser autofahrende", "varies_by_time": "clearl", "time_variation_desc": "mehr los in stosszeiten", "change_suggestion": "Fahrradstr ohne Beeinträchtigung von fussgängern", "parent_global_id": "0cadfc1c-0403-4e27-8889-ebddaaa77a53", "created_site": "5/22/2026 11:01:42 AM", "creator_site": "selina.elisabeth.wyrwal@student.hu_berlin.de_HUB", "edited_site": "5/22/2026 11:01:42 AM", "editor_site": "selina.elisabeth.wyrwal@student.hu_berlin.de_HUB", "x": 13.457053024, "y": 52.491114283000002, "id_person": 15.0, "transport_mode": "bicycle", "transport_mode_other": null, "area_connection": "living", "area_connection_other": null, "age_group": "35-44", "gender": "male", "education": "university_degree", "education_other": null, "additional_comments": "TI1", "created_person": "5/22/2026 11:01:41 AM", "creator_person": "selina.elisabeth.wyrwal@student.hu_berlin.de_HUB", "edited_person": "5/22/2026 11:01:41 AM", "editor_person": "selina.elisabeth.wyrwal@student.hu_berlin.de_HUB", "observation_clean": "Keine Fahrradwege.", "suggestion_clean": "Eine Fahrradstraße, die Fußgänger nicht beeinträchtigt.", "topic_noise": 0, "topic_air_quality": 0, "topic_safety": 0, "topic_barriers": 0, "topic_accessibility": 0, "topic_pt_connection": 0, "topic_space_distribution": 1, "topic_cond_ped": 0, "topic_cond_cycl": 1, "topic_atmosphere": 0, "topic_other": 0 }, "geometry": { "type": "Point", "coordinates": [ 13.457053024, 52.491114283 ] } },
{ "type": "Feature", "properties": { "id_site": 26.0, "global_id": "cf451e81-9f99-4453-8f92-1edb46bf60f2", "observation": "kein weg, übles kopfsteinpflaster, gehweg katastrophe, autofahrer überholen dicht", "topic_other_text": null, "justice_perception": "very unjust", "justice_for_whom": "Radfahrer und Fußgänger", "varies_by_time": "clearl", "time_variation_desc": "Sonntags kaum autoverkehr dann ist es besser", "change_suggestion": "Fahrradweg hinzufügen, kanalseitige parkplätze streichen", "parent_global_id": "df7674bd-054f-48bd-93f4-06a25aa3f72e", "created_site": "5/27/2026 4:16:04 PM", "creator_site": "jannes.goschler@student.hu_berlin.de_HUB", "edited_site": "5/27/2026 4:16:04 PM", "editor_site": "jannes.goschler@student.hu_berlin.de_HUB", "x": 13.4436463054095, "y": 52.485620284411901, "id_person": 24.0, "transport_mode": "bicycle", "transport_mode_other": null, "area_connection": "living", "area_connection_other": null, "age_group": "35-44", "gender": "female", "education": "university_degree", "education_other": null, "additional_comments": "Die A100 ist eine katastrophe, der bus nicht mehr pünktlich", "created_person": "5/27/2026 4:16:03 PM", "creator_person": "jannes.goschler@student.hu_berlin.de_HUB", "edited_person": "5/27/2026 4:16:03 PM", "editor_person": "jannes.goschler@student.hu_berlin.de_HUB", "observation_clean": "Kein Radweg, übles Kopfsteinpflaster, katastrophaler Gehweg. Autofahrer überholen mit wenig Abstand.", "suggestion_clean": "Einen Fahrradweg einrichten und die kanalseitigen Parkplätze streichen.", "topic_noise": 0, "topic_air_quality": 0, "topic_safety": 0, "topic_barriers": 1, "topic_accessibility": 0, "topic_pt_connection": 0, "topic_space_distribution": 0, "topic_cond_ped": 0, "topic_cond_cycl": 1, "topic_atmosphere": 0, "topic_other": 0 }, "geometry": { "type": "Point", "coordinates": [ 13.4436463054095, 52.485620284411901 ] } },
{ "type": "Feature", "properties": { "id_site": 34.0, "global_id": "9c7d012f-320d-4d6d-a29c-818b7efe1f51", "observation": "Nein", "topic_other_text": "Baustelle", "justice_perception": "somewhat just", "justice_for_whom": "Not just for visitors do to accessibility to Adl", "varies_by_time": "cant_say", "time_variation_desc": null, "change_suggestion": "More sitting Space", "parent_global_id": "7dc046c9-6876-488f-8dde-6354967a6e03", "created_site": "5/28/2026 10:13:47 AM", "creator_site": "WiSe2324_ags_alekseeva", "edited_site": "5/28/2026 10:13:47 AM", "editor_site": "WiSe2324_ags_alekseeva", "x": 13.5423425999644, "y": 52.4366745257053, "id_person": 32.0, "transport_mode": "public transport", "transport_mode_other": null, "area_connection": "tourist,travelling_through", "area_connection_other": null, "age_group": "25-34", "gender": "male", "education": "school_certificate", "education_other": null, "additional_comments": "None", "created_person": "5/28/2026 10:13:47 AM", "creator_person": "WiSe2324_ags_alekseeva", "edited_person": "5/28/2026 10:13:47 AM", "editor_person": "WiSe2324_ags_alekseeva", "observation_clean": "Nichts aufgefallen.", "suggestion_clean": "Mehr Sitzmöglichkeiten.", "topic_noise": 0, "topic_air_quality": 0, "topic_safety": 1, "topic_barriers": 0, "topic_accessibility": 0, "topic_pt_connection": 0, "topic_space_distribution": 0, "topic_cond_ped": 0, "topic_cond_cycl": 0, "topic_atmosphere": 1, "topic_other": 1 }, "geometry": { "type": "Point", "coordinates": [ 13.5423425999644, 52.4366745257053 ] } },
{ "type": "Feature", "properties": { "id_site": 46.0, "global_id": "d935efcc-a075-4678-8a57-228f05d92b8f", "observation": "Too loud, too many people, not very safe neighborhood", "topic_other_text": null, "justice_perception": "very unjust", "justice_for_whom": "For themselves [natives of Poland]", "varies_by_time": "clearl", "time_variation_desc": "Gets dangerous at night", "change_suggestion": "More lightning on the streets, more parking spaces", "parent_global_id": "8b0771a6-7c4e-477f-ad46-d26a405a9352", "created_site": "5/28/2026 4:09:34 PM", "creator_site": "WiSe2324_ags_alekseeva", "edited_site": "5/28/2026 4:09:34 PM", "editor_site": "WiSe2324_ags_alekseeva", "x": 13.5504221514535, "y": 52.437859421187902, "id_person": 41.0, "transport_mode": "car", "transport_mode_other": null, "area_connection": "living,working", "area_connection_other": null, "age_group": "35-44", "gender": "male", "education": "school_certificate", "education_other": null, "additional_comments": null, "created_person": "5/28/2026 4:09:34 PM", "creator_person": "WiSe2324_ags_alekseeva", "edited_person": "5/28/2026 4:09:34 PM", "editor_person": "WiSe2324_ags_alekseeva", "observation_clean": "Zu laut, zu viele Menschen, unsicheres Viertel.", "suggestion_clean": "Bessere Straßenbeleuchtung und mehr Parkplätze.", "topic_noise": 1, "topic_air_quality": 0, "topic_safety": 1, "topic_barriers": 0, "topic_accessibility": 0, "topic_pt_connection": 0, "topic_space_distribution": 0, "topic_cond_ped": 0, "topic_cond_cycl": 0, "topic_atmosphere": 0, "topic_other": 0 }, "geometry": { "type": "Point", "coordinates": [ 13.5504221514535, 52.437859421187902 ] } },
{ "type": "Feature", "properties": { "id_site": 53.0, "global_id": "f6bf168e-b32a-426a-bf1c-59c9578aa75a", "observation": "- Arbeitsweg aus Kreuzberg mit dem Fahrrad verlegt über Wangelstraße statt Wiener Straße.\n- A100 Verkehrszeiten sind ungerecht verteilt\n- Kieze verstöndigen sich nicht untereinander (mit Fahrrafinfrastruktur), ist etwas besser geworden", "topic_other_text": null, "justice_perception": "very just", "justice_for_whom": "- für alle Menschen gleich gerecht/ungerecht; - bis zur nächsten Einmündung (Bouchéestr. können auch Autofahrer); - zu kleines Dtück Fahrradstraße, hat sich nicht viel verändert", "varies_by_time": "no", "time_variation_desc": null, "change_suggestion": "Fahrradstraße weiter fortführen bis Neukölln, 2. Fahrradstraße erst in Treptow-Köpenick", "parent_global_id": "70781272-b35c-4ffa-9805-03163f24534b", "created_site": "6/4/2026 3:32:30 PM", "creator_site": "paula.zemann@student.hu_berlin.de_HUB", "edited_site": "6/4/2026 3:32:30 PM", "editor_site": "paula.zemann@student.hu_berlin.de_HUB", "x": 13.445584610413199, "y": 52.497078705128999, "id_person": 47.0, "transport_mode": "bicycle", "transport_mode_other": null, "area_connection": "working", "area_connection_other": null, "age_group": "55-64", "gender": "male", "education": "other", "education_other": "Meister", "additional_comments": "Nr. 1\n- benutzt Fahrradstraße Bouchéestr. immer zum Testen von Fahrrädern aus Werkstatt\n- bei Location ist ganze Straße gemeint -> hat weg von Wiener Str. auf Wangelstr. verlegt wegen besserer Sicherheit", "created_person": "6/4/2026 3:32:30 PM", "creator_person": "paula.zemann@student.hu_berlin.de_HUB", "edited_person": "6/4/2026 3:32:30 PM", "editor_person": "paula.zemann@student.hu_berlin.de_HUB", "observation_clean": "Arbeitsweg mit dem Fahrrad aus Kreuzberg über die Wangelstraße statt die Wiener Straße verlegt. Die Verkehrszeiten der A100 sind ungerecht verteilt. Die Kieze stimmen sich bei der Fahrradinfrastruktur nicht untereinander ab – es wird aber etwas besser.", "suggestion_clean": "Die Fahrradstraße bis Neukölln weiterführen. Eine zweite Fahrradstraße beginnt erst in Treptow-Köpenick.", "topic_noise": 1, "topic_air_quality": 0, "topic_safety": 0, "topic_barriers": 0, "topic_accessibility": 1, "topic_pt_connection": 0, "topic_space_distribution": 1, "topic_cond_ped": 0, "topic_cond_cycl": 1, "topic_atmosphere": 0, "topic_other": 0 }, "geometry": { "type": "Point", "coordinates": [ 13.445584610413199, 52.497078705128999 ] } }
]
}
